[{"OBJECT_NAME":"ONEWEB-0197","OBJECT_ID":"2021-031AC","EPOCH":"2025-10-24T15:24:18.005184","MEAN_MOTION":13.14504227,"ECCENTRICITY":0.0001641,"INCLINATION":87.9019,"RA_OF_ASC_NODE":336.6133,"ARG_OF_PERICENTER":87.8585,"MEAN_ANOMALY":272.2732,"EPHEMERIS_TYPE":0,"CLASSIFICATION_TYPE":"U","NORAD_CAT_ID":48236,"ELEMENT_SET_NO":999,"REV_AT_EPOCH":21724,"BSTAR":0.00038415,"MEAN_MOTION_DOT":1.55e-6,"MEAN_MOTION_DDOT":0},{"OBJECT_NAME":"ONEWEB-0194","OBJECT_ID":"2021-031AD","EPOCH":"2025-10-24T14:54:49.633056","MEAN_MOTION":13.14503494,"ECCENTRICITY":0.0001772,"INCLINATION":87.9022,"RA_OF_ASC_NODE":336.6333,"ARG_OF_PERICENTER":103.5703,"MEAN_ANOMALY":256.5624,"EPHEMERIS_TYPE":0,"CLASSIFICATION_TYPE":"U","NORAD_CAT_ID":48237,"ELEMENT_SET_NO":999,"REV_AT_EPOCH":21741,"BSTAR":-4.9566e-5,"MEAN_MOTION_DOT":-6.0e-8,"MEAN_MOTION_DDOT":0},{"OBJECT_NAME":"ONEWEB-0193","OBJECT_ID":"2021-031AE","EPOCH":"2025-10-24T15:17:38.368032","MEAN_MOTION":13.1450059,"ECCENTRICITY":0.0001629,"INCLINATION":87.9013,"RA_OF_ASC_NODE":336.6269,"ARG_OF_PERICENTER":110.5233,"MEAN_ANOMALY":249.6071,"EPHEMERIS_TYPE":0,"CLASSIFICATION_TYPE":"U","NORAD_CAT_ID":48238,"ELEMENT_SET_NO":999,"REV_AT_EPOCH":21736,"BSTAR":0.00063415,"MEAN_MOTION_DOT":2.48e-6,"MEAN_MOTION_DDOT":0},{"OBJECT_NAME":"ONEWEB-0191","OBJECT_ID":"2021-031AF","EPOCH":"2025-10-24T11:54:24.181344","MEAN_MOTION":13.14504626,"ECCENTRICITY":0.0001775,"INCLINATION":87.9032,"RA_OF_ASC_NODE":336.6397,"ARG_OF_PERICENTER":97.1017,"MEAN_ANOMALY":263.0315,"EPHEMERIS_TYPE":0,"CLASSIFICATION_TYPE":"U","NORAD_CAT_ID":48239,"ELEMENT_SET_NO":999,"REV_AT_EPOCH":21720,"BSTAR":0.00033238,"MEAN_MOTION_DOT":1.36e-6,"MEAN_MOTION_DDOT":0},{"OBJECT_NAME":"ONEWEB-0195","OBJECT_ID":"2021-031AG","EPOCH":"2025-10-24T15:00:32.464800","MEAN_MOTION":13.14502241,"ECCENTRICITY":0.0002269,"INCLINATION":87.9028,"RA_OF_ASC_NODE":336.6098,"ARG_OF_PERICENTER":95.5357,"MEAN_ANOMALY":264.6032,"EPHEMERIS_TYPE":0,"CLASSIFICATION_TYPE":"U","NORAD_CAT_ID":48240,"ELEMENT_SET_NO":999,"REV_AT_EPOCH":21720,"BSTAR":8.5974e-5,"MEAN_MOTION_DOT":4.5e-7,"MEAN_MOTION_DDOT":0},{"OBJECT_NAME":"ONEWEB-0201","OBJECT_ID":"2021-031AH","EPOCH":"2025-10-24T12:53:59.880768","MEAN_MOTION":13.14503507,"ECCENTRICITY":0.0001985,"INCLINATION":87.9013,"RA_OF_ASC_NODE":336.6744,"ARG_OF_PERICENTER":87.5788,"MEAN_ANOMALY":272.5568,"EPHEMERIS_TYPE":0,"CLASSIFICATION_TYPE":"U","NORAD_CAT_ID":48241,"ELEMENT_SET_NO":999,"REV_AT_EPOCH":21742,"BSTAR":-0.00033789,"MEAN_MOTION_DOT":-1.12e-6,"MEAN_MOTION_DDOT":0},{"OBJECT_NAME":"ONEWEB-0207","OBJECT_ID":"2021-031AJ","EPOCH":"2025-10-24T08:46:01.531200","MEAN_MOTION":13.14503623,"ECCENTRICITY":0.0001895,"INCLINATION":87.9022,"RA_OF_ASC_NODE":336.6654,"ARG_OF_PERICENTER":89.7829,"MEAN_ANOMALY":270.3518,"EPHEMERIS_TYPE":0,"CLASSIFICATION_TYPE":"U","NORAD_CAT_ID":48242,"ELEMENT_SET_NO":999,"REV_AT_EPOCH":21731,"BSTAR":-0.00038585,"MEAN_MOTION_DOT":-1.3e-6,"MEAN_MOTION_DDOT":0},{"OBJECT_NAME":"ONEWEB-0208","OBJECT_ID":"2021-031AK","EPOCH":"2025-10-24T13:48:35.360064","MEAN_MOTION":13.14504172,"ECCENTRICITY":0.0002035,"INCLINATION":87.9022,"RA_OF_ASC_NODE":336.64,"ARG_OF_PERICENTER":96.3597,"MEAN_ANOMALY":263.7764,"EPHEMERIS_TYPE":0,"CLASSIFICATION_TYPE":"U","NORAD_CAT_ID":48243,"ELEMENT_SET_NO":999,"REV_AT_EPOCH":21735,"BSTAR":0.00023404,"MEAN_MOTION_DOT":1.0e-6,"MEAN_MOTION_DDOT":0},{"OBJECT_NAME":"ONEWEB-0200","OBJECT_ID":"2021-031AL","EPOCH":"2025-10-24T14:45:41.535648","MEAN_MOTION":13.14502671,"ECCENTRICITY":0.0001987,"INCLINATION":87.9022,"RA_OF_ASC_NODE":336.6218,"ARG_OF_PERICENTER":95.388,"MEAN_ANOMALY":264.7477,"EPHEMERIS_TYPE":0,"CLASSIFICATION_TYPE":"U","NORAD_CAT_ID":48244,"ELEMENT_SET_NO":999,"REV_AT_EPOCH":21728,"BSTAR":-0.00035392,"MEAN_MOTION_DOT":-1.18e-6,"MEAN_MOTION_DDOT":0},{"OBJECT_NAME":"ONEWEB-0217","OBJECT_ID":"2021-031AM","EPOCH":"2025-10-24T15:08:31.473312","MEAN_MOTION":13.1450356,"ECCENTRICITY":0.0002174,"INCLINATION":87.9029,"RA_OF_ASC_NODE":336.6087,"ARG_OF_PERICENTER":96.5588,"MEAN_ANOMALY":263.5789,"EPHEMERIS_TYPE":0,"CLASSIFICATION_TYPE":"U","NORAD_CAT_ID":48245,"ELEMENT_SET_NO":999,"REV_AT_EPOCH":21723,"BSTAR":0.00046728,"MEAN_MOTION_DOT":1.86e-6,"MEAN_MOTION_DDOT":0},{"OBJECT_NAME":"ONEWEB-0211","OBJECT_ID":"2021-045A","EPOCH":"2025-10-24T18:01:08.675040","MEAN_MOTION":13.16119997,"ECCENTRICITY":0.0002171,"INCLINATION":87.8972,"RA_OF_ASC_NODE":306.1106,"ARG_OF_PERICENTER":100.0352,"MEAN_ANOMALY":260.1024,"EPHEMERIS_TYPE":0,"CLASSIFICATION_TYPE":"U","NORAD_CAT_ID":48767,"ELEMENT_SET_NO":999,"REV_AT_EPOCH":21347,"BSTAR":0.0068531,"MEAN_MOTION_DOT":2.615e-5,"MEAN_MOTION_DDOT":0},{"OBJECT_NAME":"ONEWEB-0223","OBJECT_ID":"2021-045B","EPOCH":"2025-10-24T11:47:55.219776","MEAN_MOTION":13.15549612,"ECCENTRICITY":0.0002041,"INCLINATION":87.8963,"RA_OF_ASC_NODE":306.2199,"ARG_OF_PERICENTER":105.4975,"MEAN_ANOMALY":254.6381,"EPHEMERIS_TYPE":0,"CLASSIFICATION_TYPE":"U","NORAD_CAT_ID":48768,"ELEMENT_SET_NO":999,"REV_AT_EPOCH":21341,"BSTAR":0.00030506,"MEAN_MOTION_DOT":1.28e-6,"MEAN_MOTION_DDOT":0},{"OBJECT_NAME":"ONEWEB-0230","OBJECT_ID":"2021-045C","EPOCH":"2025-10-24T12:56:22.559136","MEAN_MOTION":13.15548364,"ECCENTRICITY":0.000169,"INCLINATION":87.8959,"RA_OF_ASC_NODE":306.2422,"ARG_OF_PERICENTER":91.8443,"MEAN_ANOMALY":268.2881,"EPHEMERIS_TYPE":0,"CLASSIFICATION_TYPE":"U","NORAD_CAT_ID":48769,"ELEMENT_SET_NO":999,"REV_AT_EPOCH":21368,"BSTAR":7.2388e-5,"MEAN_MOTION_DOT":4.0e-7,"MEAN_MOTION_DDOT":0},{"OBJECT_NAME":"ONEWEB-0237","OBJECT_ID":"2021-045D","EPOCH":"2025-10-24T18:08:58.297056","MEAN_MOTION":13.15548789,"ECCENTRICITY":0.0001866,"INCLINATION":87.8965,"RA_OF_ASC_NODE":306.197,"ARG_OF_PERICENTER":100.7192,"MEAN_ANOMALY":259.4149,"EPHEMERIS_TYPE":0,"CLASSIFICATION_TYPE":"U","NORAD_CAT_ID":48770,"ELEMENT_SET_NO":999,"REV_AT_EPOCH":21343,"BSTAR":-0.00033099,"MEAN_MOTION_DOT":-1.12e-6,"MEAN_MOTION_DDOT":0},{"OBJECT_NAME":"ONEWEB-0235","OBJECT_ID":"2021-045E","EPOCH":"2025-10-24T17:32:27.662208","MEAN_MOTION":13.15549925,"ECCENTRICITY":0.0002019,"INCLINATION":87.8964,"RA_OF_ASC_NODE":306.1731,"ARG_OF_PERICENTER":106.144,"MEAN_ANOMALY":253.9913,"EPHEMERIS_TYPE":0,"CLASSIFICATION_TYPE":"U","NORAD_CAT_ID":48771,"ELEMENT_SET_NO":999,"REV_AT_EPOCH":21342,"BSTAR":0.00020754,"MEAN_MOTION_DOT":9.1e-7,"MEAN_MOTION_DDOT":0},{"OBJECT_NAME":"ONEWEB-0242","OBJECT_ID":"2021-045F","EPOCH":"2025-10-24T17:23:20.637024","MEAN_MOTION":13.15548513,"ECCENTRICITY":0.0001748,"INCLINATION":87.8973,"RA_OF_ASC_NODE":306.1641,"ARG_OF_PERICENTER":97.4255,"MEAN_ANOMALY":262.7074,"EPHEMERIS_TYPE":0,"CLASSIFICATION_TYPE":"U","NORAD_CAT_ID":48772,"ELEMENT_SET_NO":999,"REV_AT_EPOCH":21346,"BSTAR":0.00045774,"MEAN_MOTION_DOT":1.85e-6,"MEAN_MOTION_DDOT":0},{"OBJECT_NAME":"ONEWEB-0241","OBJECT_ID":"2021-045G","EPOCH":"2025-10-24T18:54:37.045728","MEAN_MOTION":13.15548506,"ECCENTRICITY":0.0002218,"INCLINATION":87.8958,"RA_OF_ASC_NODE":306.1938,"ARG_OF_PERICENTER":99.8091,"MEAN_ANOMALY":260.329,"EPHEMERIS_TYPE":0,"CLASSIFICATION_TYPE":"U","NORAD_CAT_ID":48773,"ELEMENT_SET_NO":999,"REV_AT_EPOCH":21338,"BSTAR":0.00028963,"MEAN_MOTION_DOT":1.22e-6,"MEAN_MOTION_DDOT":0}]
