ONEWEB-0197             
1 48236U 21031AC  25297.64187506  .00000155  00000+0  38415-3 0  9996
2 48236  87.9019 336.6133 0001641  87.8585 272.2732 13.14504227217247
ONEWEB-0194             
1 48237U 21031AD  25297.62140779 -.00000006  00000+0 -49566-4 0  9993
2 48237  87.9022 336.6333 0001772 103.5703 256.5624 13.14503494217416
ONEWEB-0193             
1 48238U 21031AE  25297.63724963  .00000248  00000+0  63415-3 0  9992
2 48238  87.9013 336.6269 0001629 110.5233 249.6071 13.14500590217369
ONEWEB-0191             
1 48239U 21031AF  25297.49611321  .00000136  00000+0  33238-3 0  9996
2 48239  87.9032 336.6397 0001775  97.1017 263.0315 13.14504626217203
ONEWEB-0195             
1 48240U 21031AG  25297.62537575  .00000045  00000+0  85974-4 0  9995
2 48240  87.9028 336.6098 0002269  95.5357 264.6032 13.14502241217200
ONEWEB-0201             
1 48241U 21031AH  25297.53749862 -.00000112  00000+0 -33789-3 0  9993
2 48241  87.9013 336.6744 0001985  87.5788 272.5568 13.14503507217428
ONEWEB-0207             
1 48242U 21031AJ  25297.36529550 -.00000130  00000+0 -38585-3 0  9994
2 48242  87.9022 336.6654 0001895  89.7829 270.3518 13.14503623217317
ONEWEB-0208             
1 48243U 21031AK  25297.57540926  .00000100  00000+0  23404-3 0  9997
2 48243  87.9022 336.6400 0002035  96.3597 263.7764 13.14504172217353
ONEWEB-0200             
1 48244U 21031AL  25297.61506407 -.00000118  00000+0 -35392-3 0  9999
2 48244  87.9022 336.6218 0001987  95.3880 264.7477 13.14502671217286
ONEWEB-0217             
1 48245U 21031AM  25297.63091983  .00000186  00000+0  46728-3 0  9998
2 48245  87.9029 336.6087 0002174  96.5588 263.5789 13.14503560217231
ONEWEB-0211             
1 48767U 21045A   25297.75079485  .00002615  00000+0  68531-2 0  9992
2 48767  87.8972 306.1106 0002171 100.0352 260.1024 13.16119997213473
ONEWEB-0223             
1 48768U 21045B   25297.49161134  .00000128  00000+0  30506-3 0  9996
2 48768  87.8963 306.2199 0002041 105.4975 254.6381 13.15549612213411
ONEWEB-0230             
1 48769U 21045C   25297.53914999  .00000040  00000+0  72388-4 0  9995
2 48769  87.8959 306.2422 0001690  91.8443 268.2881 13.15548364213681
ONEWEB-0237             
1 48770U 21045D   25297.75623029 -.00000112  00000+0 -33099-3 0  9999
2 48770  87.8965 306.1970 0001866 100.7192 259.4149 13.15548789213436
ONEWEB-0235             
1 48771U 21045E   25297.73087572  .00000091  00000+0  20754-3 0  9993
2 48771  87.8964 306.1731 0002019 106.1440 253.9913 13.15549925213428
ONEWEB-0242             
1 48772U 21045F   25297.72454441  .00000185  00000+0  45774-3 0  9999
2 48772  87.8973 306.1641 0001748  97.4255 262.7074 13.15548513213465
ONEWEB-0241             
1 48773U 21045G   25297.78792877  .00000122  00000+0  28963-3 0  9996
2 48773  87.8958 306.1938 0002218  99.8091 260.3290 13.15548506213382
